ONEWEB-0153             
1 48044U 21025C   24088.48392700  .00000000  00000+0 -35813-4 0  9999
2 48044  87.8915 121.6093 0001974  97.6980 262.4374 13.13470042147120
ONEWEB-0154             
1 48045U 21025D   24088.78546653  .00000167  00000+0  42118-3 0  9999
2 48045  87.8910 121.5632 0001920  94.9837 265.1512 13.13469907147139
ONEWEB-0116             
1 48046U 21025E   24088.52202265  .00000090  00000+0  21035-3 0  9990
2 48046  87.8912 121.5817 0001910  88.9291 271.2057 13.13469791147237
ONEWEB-0150             
1 48047U 21025F   24088.49662311 -.00000281  00000+0 -80572-3 0  9994
2 48047  87.8907 121.6105 0002123  97.4851 262.6519 13.13469446147129
ONEWEB-0107             
1 48048U 21025G   24088.49821649 -.00000305  00000+0 -86981-3 0  9993
2 48048  87.8909 121.6084 0002246 101.6725 258.4656 13.13469158147105
ONEWEB-0101             
1 48049U 21025H   24088.84260551  .00000366  00000+0  96780-3 0  9995
2 48049  87.8913 121.5512 0001864  98.2137 261.9203 13.13470212147121
ONEWEB-0113             
1 48050U 21025J   24088.82038231 -.00000144  00000+0 -42878-3 0  9998
2 48050  87.8912 121.5379 0001919  90.1275 270.0074 13.13470044147207
ONEWEB-0112             
1 48051U 21025K   24088.80768334 -.00000301  00000+0 -85980-3 0  9997
2 48051  87.8911 121.5443 0002102  93.5398 266.5972 13.13469760147229
